[
    {
        "Altitude(m)": 709779.6215803865,
        "Argument of Periapsis(deg)": 0.0034170363559881197,
        "Eccentricity": 0.0,
        "Inclination(deg)": 45.0,
        "Latitude(deg)": -24.846909789748672,
        "Longitude(deg)": -157.78669382772773,
        "Mean Anomaly(deg)": 216.1872649942443,
        "RAAN(deg)": 94.99677441756253,
        "Satellite Name": "Constellation 1 431",
        "Satellite Number": 431,
        "Semi-Major Axis(m)": 7083131.272910544,
        "Time(s)": 57
    },
    {
        "Altitude(m)": 709793.3979453887,
        "Argument of Periapsis(deg)": 0.003476984362233526,
        "Eccentricity": 0.0,
        "Inclination(deg)": 45.0,
        "Latitude(deg)": -24.885141404539105,
        "Longitude(deg)": -157.7388733150347,
        "Mean Anomaly(deg)": 216.2479661344942,
        "RAAN(deg)": 94.99671782839698,
        "Satellite Name": "Constellation 1 431",
        "Satellite Number": 431,
        "Semi-Major Axis(m)": 7083131.272910544,
        "Time(s)": 58
    },
    {
        "Altitude(m)": 709807.1768586464,
        "Argument of Periapsis(deg)": 0.003536932368478932,
        "Eccentricity": 0.0,
        "Inclination(deg)": 45.0,
        "Latitude(deg)": -24.923354662701005,
        "Longitude(deg)": -157.6910211405402,
        "Mean Anomaly(deg)": 216.30866727474404,
        "RAAN(deg)": 94.9966612392314,
        "Satellite Name": "Constellation 1 431",
        "Satellite Number": 431,
        "Semi-Major Axis(m)": 7083131.272910544,
        "Time(s)": 59
    },
    {
        "Altitude(m)": 709820.9582733647,
        "Argument of Periapsis(deg)": 0.003596880374724337,
        "Eccentricity": 0.0,
        "Inclination(deg)": 45.0,
        "Latitude(deg)": -24.961549521751152,
        "Longitude(deg)": -157.64313690791172,
        "Mean Anomaly(deg)": 216.36936841499397,
        "RAAN(deg)": 94.99660465006583,
        "Satellite Name": "Constellation 1 431",
        "Satellite Number": 431,
        "Semi-Major Axis(m)": 7083131.272910544,
        "Time(s)": 60
    },
    {
        "Altitude(m)": 709834.7421427222,
        "Argument of Periapsis(deg)": 0.0036568283809697427,
        "Eccentricity": 0.0,
        "Inclination(deg)": 45.0,
        "Latitude(deg)": -24.999725939143758,
        "Longitude(deg)": -157.5952207251025,
        "Mean Anomaly(deg)": 216.43006955524385,
        "RAAN(deg)": 94.99654806090025,
        "Satellite Name": "Constellation 1 431",
        "Satellite Number": 431,
        "Semi-Major Axis(m)": 7083131.272910544,
        "Time(s)": 61
    },
    {
        "Altitude(m)": 709848.528419882,
        "Argument of Periapsis(deg)": 0.003716776387215149,
        "Eccentricity": 0.0,
        "Inclination(deg)": 45.0,
        "Latitude(deg)": -25.037883872271664,
        "Longitude(deg)": -157.54727253196302,
        "Mean Anomaly(deg)": 216.49077069549375,
        "RAAN(deg)": 94.99649147173469,
        "Satellite Name": "Constellation 1 431",
        "Satellite Number": 431,
        "Semi-Major Axis(m)": 7083131.272910544,
        "Time(s)": 62
    },
    {
        "Altitude(m)": 709862.3170579815,
        "Argument of Periapsis(deg)": 0.003776724393460554,
        "Eccentricity": 0.0,
        "Inclination(deg)": 45.0,
        "Latitude(deg)": -25.07602327846571,
        "Longitude(deg)": -157.499292268339,
        "Mean Anomaly(deg)": 216.5514718357436,
        "RAAN(deg)": 94.99643488256913,
        "Satellite Name": "Constellation 1 431",
        "Satellite Number": 431,
        "Semi-Major Axis(m)": 7083131.272910544,
        "Time(s)": 63
    },
    {
        "Altitude(m)": 709876.1080101341,
        "Argument of Periapsis(deg)": 0.003836672399705959,
        "Eccentricity": 0.0,
        "Inclination(deg)": 45.0,
        "Latitude(deg)": -25.114144114995028,
        "Longitude(deg)": -157.45127987407093,
        "Mean Anomaly(deg)": 216.6121729759936,
        "RAAN(deg)": 94.99637829340355,
        "Satellite Name": "Constellation 1 431",
        "Satellite Number": 431,
        "Semi-Major Axis(m)": 7083131.272910544,
        "Time(s)": 64
    },
    {
        "Altitude(m)": 709889.9012294391,
        "Argument of Periapsis(deg)": 0.003896620405951365,
        "Eccentricity": 0.0,
        "Inclination(deg)": 45.0,
        "Latitude(deg)": -25.152246339066515,
        "Longitude(deg)": -157.40323528899506,
        "Mean Anomaly(deg)": 216.67287411624346,
        "RAAN(deg)": 94.99632170423799,
        "Satellite Name": "Constellation 1 431",
        "Satellite Number": 431,
        "Semi-Major Axis(m)": 7083131.272910544,
        "Time(s)": 65
    },
    {
        "Altitude(m)": 709903.6966689667,
        "Argument of Periapsis(deg)": 0.003956568412196771,
        "Eccentricity": 0.0,
        "Inclination(deg)": 45.0,
        "Latitude(deg)": -25.19032990782497,
        "Longitude(deg)": -157.35515845294333,
        "Mean Anomaly(deg)": 216.7335752564933,
        "RAAN(deg)": 94.99626511507242,
        "Satellite Name": "Constellation 1 431",
        "Satellite Number": 431,
        "Semi-Major Axis(m)": 7083131.272910544,
        "Time(s)": 66
    },
    {
        "Altitude(m)": 709917.4942817752,
        "Argument of Periapsis(deg)": 0.004016516418442176,
        "Eccentricity": 0.0,
        "Inclination(deg)": 45.0,
        "Latitude(deg)": -25.228394778352868,
        "Longitude(deg)": -157.30704947384066,
        "Mean Anomaly(deg)": 216.79427639674324,
        "RAAN(deg)": 94.99620852590685,
        "Satellite Name": "Constellation 1 431",
        "Satellite Number": 431,
        "Semi-Major Axis(m)": 7083131.272910544,
        "Time(s)": 67
    },
    {
        "Altitude(m)": 709931.2940208901,
        "Argument of Periapsis(deg)": 0.004076464424687581,
        "Eccentricity": 0.0,
        "Inclination(deg)": 45.0,
        "Latitude(deg)": -25.266440907670848,
        "Longitude(deg)": -157.25890795531737,
        "Mean Anomaly(deg)": 216.85497753699315,
        "RAAN(deg)": 94.99615193674128,
        "Satellite Name": "Constellation 1 431",
        "Satellite Number": 431,
        "Semi-Major Axis(m)": 7083131.272910544,
        "Time(s)": 68
    },
    {
        "Altitude(m)": 709945.0958393308,
        "Argument of Periapsis(deg)": 0.004136412430932987,
        "Eccentricity": 0.0,
        "Inclination(deg)": 45.0,
        "Latitude(deg)": -25.30446825273657,
        "Longitude(deg)": -157.2107340052915,
        "Mean Anomaly(deg)": 216.91567867724302,
        "RAAN(deg)": 94.9960953475757,
        "Satellite Name": "Constellation 1 431",
        "Satellite Number": 431,
        "Semi-Major Axis(m)": 7083131.272910544,
        "Time(s)": 69
    },
    {
        "Altitude(m)": 709958.8996900829,
        "Argument of Periapsis(deg)": 0.004196360437178394,
        "Eccentricity": 0.0,
        "Inclination(deg)": 45.0,
        "Latitude(deg)": -25.342476770445227,
        "Longitude(deg)": -157.16252756358105,
        "Mean Anomaly(deg)": 216.97637981749293,
        "RAAN(deg)": 94.99603875841014,
        "Satellite Name": "Constellation 1 431",
        "Satellite Number": 431,
        "Semi-Major Axis(m)": 7083131.272910544,
        "Time(s)": 70
    },
    {
        "Altitude(m)": 709972.7055261168,
        "Argument of Periapsis(deg)": 0.004256308443423799,
        "Eccentricity": 0.0,
        "Inclination(deg)": 45.0,
        "Latitude(deg)": -25.380466417629517,
        "Longitude(deg)": -157.11428857000115,
        "Mean Anomaly(deg)": 217.03708095774286,
        "RAAN(deg)": 94.99598216924458,
        "Satellite Name": "Constellation 1 431",
        "Satellite Number": 431,
        "Semi-Major Axis(m)": 7083131.272910544,
        "Time(s)": 71
    },
    {
        "Altitude(m)": 709986.5133003863,
        "Argument of Periapsis(deg)": 0.004316256449669204,
        "Eccentricity": 0.0,
        "Inclination(deg)": 45.0,
        "Latitude(deg)": -25.418437151059276,
        "Longitude(deg)": -157.06601696436482,
        "Mean Anomaly(deg)": 217.09778209799276,
        "RAAN(deg)": 94.99592558007902,
        "Satellite Name": "Constellation 1 431",
        "Satellite Number": 431,
        "Semi-Major Axis(m)": 7083131.272910544,
        "Time(s)": 72
    },
    {
        "Altitude(m)": 710000.3229658261,
        "Argument of Periapsis(deg)": 0.00437620445591461,
        "Eccentricity": 0.0,
        "Inclination(deg)": 45.0,
        "Latitude(deg)": -25.45638892744164,
        "Longitude(deg)": -157.01771268648264,
        "Mean Anomaly(deg)": 217.1584832382426,
        "RAAN(deg)": 94.99586899091344,
        "Satellite Name": "Constellation 1 431",
        "Satellite Number": 431,
        "Semi-Major Axis(m)": 7083131.272910544,
        "Time(s)": 73
    },
    {
        "Altitude(m)": 710014.13447534,
        "Argument of Periapsis(deg)": 0.004436152462160016,
        "Eccentricity": 0.0,
        "Inclination(deg)": 45.0,
        "Latitude(deg)": -25.49432170342049,
        "Longitude(deg)": -156.9693758442606,
        "Mean Anomaly(deg)": 217.21918437849257,
        "RAAN(deg)": 94.99581240174787,
        "Satellite Name": "Constellation 1 431",
        "Satellite Number": 431,
        "Semi-Major Axis(m)": 7083131.272910544,
        "Time(s)": 74
    },
    {
        "Altitude(m)": 710027.9477818235,
        "Argument of Periapsis(deg)": 0.0044961004684054215,
        "Eccentricity": 0.0,
        "Inclination(deg)": 45.0,
        "Latitude(deg)": -25.53223543557745,
        "Longitude(deg)": -156.92100604131215,
        "Mean Anomaly(deg)": 217.27988551874247,
        "RAAN(deg)": 94.99575581258229,
        "Satellite Name": "Constellation 1 431",
        "Satellite Number": 431,
        "Semi-Major Axis(m)": 7083131.272910544,
        "Time(s)": 75
    }
]